start=new Date('2022-05-02T00:00:00.000Z').valueOf();
sats=[{"INCLINATION":"53.2172","MEAN_MOTION_DDOT":"0.0000000000000","OBJECT_NAME":"STARLINK-3392","OBJECT_ID":"2022-005V","GP_ID":"202474768","CENTER_NAME":"EARTH","MEAN_ANOMALY":"331.5852","OBJECT_TYPE":"PAYLOAD","REV_AT_EPOCH":"367","ECCENTRICITY":"0.00016130","REF_FRAME":"TEME","FILE":"3424759","MEAN_MOTION_DOT":"-0.00642397","DECAY_DATE":null,"TLE_LINE1":"1 51123U 22005V   22121.91668981 -.00642397  00000-0 -22027-1 0  9994","LAUNCH_DATE":"2022-01-19","COUNTRY_CODE":"US","EPHEMERIS_TYPE":"0","PERIAPSIS":"468.732","TLE_LINE2":"2 51123  53.2172 130.2533 0001613  38.2161 331.5852 15.32003798  3674","SITE":"AFETR","RA_OF_ASC_NODE":"130.2533","BSTAR":"-0.02202700000000","APOAPSIS":"470.941","RCS_SIZE":"LARGE","ARG_OF_PERICENTER":"38.2161","TIME_SYSTEM":"UTC","SEMIMAJOR_AXIS":"6847.972","MEAN_MOTION":"15.32003798","MEAN_ELEMENT_THEORY":"SGP4","NORAD_CAT_ID":"51123","ELEMENT_SET_NO":"999","PERIOD":"93.995","CLASSIFICATION_TYPE":"U","EPOCH":"2022-05-01T22:00:01.999584"},{"RCS_SIZE":"LARGE","APOAPSIS":"540.928","ARG_OF_PERICENTER":"52.0625","TIME_SYSTEM":"UTC","BSTAR":"0.00272460000000","RA_OF_ASC_NODE":"138.8413","MEAN_ELEMENT_THEORY":"SGP4","MEAN_MOTION":"15.08823700","SEMIMAJOR_AXIS":"6917.930","NORAD_CAT_ID":"51124","PERIOD":"95.439","ELEMENT_SET_NO":"999","CLASSIFICATION_TYPE":"U","EPOCH":"2022-05-01T22:00:01.999584","OBJECT_ID":"2022-005W","GP_ID":"202475518","INCLINATION":"53.2154","OBJECT_NAME":"STARLINK-3389","MEAN_MOTION_DDOT":"0.0000000000000","REF_FRAME":"TEME","FILE":"3424759","MEAN_ANOMALY":"70.2203","OBJECT_TYPE":"PAYLOAD","CENTER_NAME":"EARTH","ECCENTRICITY":"0.00016380","REV_AT_EPOCH":"362","TLE_LINE1":"1 51124U 22005W   22121.91668981  .00043322  00000-0  27246-2 0  9995","DECAY_DATE":null,"MEAN_MOTION_DOT":"0.00043322","EPHEMERIS_TYPE":"0","COUNTRY_CODE":"US","SITE":"AFETR","TLE_LINE2":"2 51124  53.2154 138.8413 0001638  52.0625  70.2203 15.08823700  3620","PERIAPSIS":"538.662","LAUNCH_DATE":"2022-01-19"},{"APOAPSIS":"540.972","RCS_SIZE":"LARGE","ARG_OF_PERICENTER":"43.8138","TIME_SYSTEM":"UTC","RA_OF_ASC_NODE":"138.8619","BSTAR":"0.00264410000000","MEAN_MOTION":"15.08818585","MEAN_ELEMENT_THEORY":"SGP4","SEMIMAJOR_AXIS":"6917.946","NORAD_CAT_ID":"51125","ELEMENT_SET_NO":"999","PERIOD":"95.439","CLASSIFICATION_TYPE":"U","EPOCH":"2022-05-01T22:00:01.999584","OBJECT_ID":"2022-005X","GP_ID":"202475761","INCLINATION":"53.2145","MEAN_MOTION_DDOT":"0.0000000000000","OBJECT_NAME":"STARLINK-3387","REF_FRAME":"TEME","FILE":"3424759","CENTER_NAME":"EARTH","OBJECT_TYPE":"PAYLOAD","MEAN_ANOMALY":"138.5562","REV_AT_EPOCH":"362","ECCENTRICITY":"0.00016790","TLE_LINE1":"1 51125U 22005X   22121.91668981  .00042019  00000-0  26441-2 0  9994","DECAY_DATE":null,"MEAN_MOTION_DOT":"0.00042019","COUNTRY_CODE":"US","EPHEMERIS_TYPE":"0","TLE_LINE2":"2 51125  53.2145 138.8619 0001679  43.8138 138.5562 15.08818585  3622","PERIAPSIS":"538.649","SITE":"AFETR","LAUNCH_DATE":"2022-01-19"},{"RCS_SIZE":"LARGE","APOAPSIS":"541.018","TIME_SYSTEM":"UTC","ARG_OF_PERICENTER":"46.3652","BSTAR":"0.00266570000000","RA_OF_ASC_NODE":"138.8409","MEAN_ELEMENT_THEORY":"SGP4","MEAN_MOTION":"15.08823702","SEMIMAJOR_AXIS":"6917.930","NORAD_CAT_ID":"51126","PERIOD":"95.439","ELEMENT_SET_NO":"999","CLASSIFICATION_TYPE":"U","EPOCH":"2022-05-01T22:00:01.999584","OBJECT_ID":"2022-005Y","GP_ID":"202474518","INCLINATION":"53.2166","OBJECT_NAME":"STARLINK-3386","MEAN_MOTION_DDOT":"0.0000000000000","REF_FRAME":"TEME","FILE":"3424759","MEAN_ANOMALY":"95.9648","OBJECT_TYPE":"PAYLOAD","CENTER_NAME":"EARTH","ECCENTRICITY":"0.00017670","REV_AT_EPOCH":"362","TLE_LINE1":"1 51126U 22005Y   22121.91668981  .00042373  00000-0  26657-2 0  9997","DECAY_DATE":null,"MEAN_MOTION_DOT":"0.00042373","EPHEMERIS_TYPE":"0","COUNTRY_CODE":"US","SITE":"AFETR","PERIAPSIS":"538.573","TLE_LINE2":"2 51126  53.2166 138.8409 0001767  46.3652  95.9648 15.08823702  3628","LAUNCH_DATE":"2022-01-19"},{"NORAD_CAT_ID":"51127","PERIOD":"95.439","ELEMENT_SET_NO":"999","CLASSIFICATION_TYPE":"U","EPOCH":"2022-05-01T22:00:01.999584","RCS_SIZE":"LARGE","APOAPSIS":"541.071","TIME_SYSTEM":"UTC","ARG_OF_PERICENTER":"49.8082","BSTAR":"0.00263190000000","RA_OF_ASC_NODE":"138.8400","MEAN_ELEMENT_THEORY":"SGP4","MEAN_MOTION":"15.08816716","SEMIMAJOR_AXIS":"6917.952","TLE_LINE1":"1 51127U 22005Z   22121.91668981  .00041821  00000-0  26319-2 0  9990","DECAY_DATE":null,"MEAN_MOTION_DOT":"0.00041821","COUNTRY_CODE":"US","EPHEMERIS_TYPE":"0","SITE":"AFETR","TLE_LINE2":"2 51127  53.2161 138.8400 0001814  49.8082 112.5135 15.08816716  3638","PERIAPSIS":"538.562","LAUNCH_DATE":"2022-01-19","OBJECT_ID":"2022-005Z","GP_ID":"202475269","INCLINATION":"53.2161","OBJECT_NAME":"STARLINK-3370","MEAN_MOTION_DDOT":"0.0000000000000","REF_FRAME":"TEME","FILE":"3424759","MEAN_ANOMALY":"112.5135","OBJECT_TYPE":"PAYLOAD","CENTER_NAME":"EARTH","ECCENTRICITY":"0.00018140","REV_AT_EPOCH":"363"},{"SEMIMAJOR_AXIS":"6917.958","MEAN_MOTION":"15.08814651","MEAN_ELEMENT_THEORY":"SGP4","RA_OF_ASC_NODE":"138.8596","BSTAR":"0.00294510000000","ARG_OF_PERICENTER":"38.2486","TIME_SYSTEM":"UTC","APOAPSIS":"541.119","RCS_SIZE":"LARGE","EPOCH":"2022-05-01T22:00:01.999584","CLASSIFICATION_TYPE":"U","ELEMENT_SET_NO":"999","PERIOD":"95.439","NORAD_CAT_ID":"51128","REV_AT_EPOCH":"363","ECCENTRICITY":"0.00018730","CENTER_NAME":"EARTH","MEAN_ANOMALY":"224.0791","OBJECT_TYPE":"PAYLOAD","FILE":"3424759","REF_FRAME":"TEME","MEAN_MOTION_DDOT":"0.0000000000000","OBJECT_NAME":"STARLINK-3400","INCLINATION":"53.2161","GP_ID":"202476019","OBJECT_ID":"2022-005AA","LAUNCH_DATE":"2022-01-19","TLE_LINE2":"2 51128  53.2161 138.8596 0001873  38.2486 224.0791 15.08814651  3633","PERIAPSIS":"538.527","SITE":"AFETR","EPHEMERIS_TYPE":"0","COUNTRY_CODE":"US","MEAN_MOTION_DOT":"0.00046863","DECAY_DATE":null,"TLE_LINE1":"1 51128U 22005AA  22121.91668981  .00046863  00000-0  29451-2 0  9992"},{"RA_OF_ASC_NODE":"138.8463","BSTAR":"0.00274750000000","APOAPSIS":"541.134","RCS_SIZE":"LARGE","TIME_SYSTEM":"UTC","ARG_OF_PERICENTER":"42.8197","SEMIMAJOR_AXIS":"6917.974","MEAN_MOTION":"15.08809435","MEAN_ELEMENT_THEORY":"SGP4","NORAD_CAT_ID":"51129","ELEMENT_SET_NO":"999","PERIOD":"95.439","CLASSIFICATION_TYPE":"U","EPOCH":"2022-05-01T22:00:01.999584","INCLINATION":"53.2192","MEAN_MOTION_DDOT":"0.0000000000000","OBJECT_NAME":"STARLINK-3396","OBJECT_ID":"2022-005AB","GP_ID":"202476262","CENTER_NAME":"EARTH","MEAN_ANOMALY":"74.3215","OBJECT_TYPE":"PAYLOAD","REV_AT_EPOCH":"362","ECCENTRICITY":"0.00018720","REF_FRAME":"TEME","FILE":"3424759","MEAN_MOTION_DOT":"0.00043673","DECAY_DATE":null,"TLE_LINE1":"1 51129U 22005AB  22121.91668981  .00043673  00000-0  27475-2 0  9993","LAUNCH_DATE":"2022-01-19","COUNTRY_CODE":"US","EPHEMERIS_TYPE":"0","TLE_LINE2":"2 51129  53.2192 138.8463 0001872  42.8197  74.3215 15.08809435  3620","PERIAPSIS":"538.544","SITE":"AFETR"},{"MEAN_MOTION":"15.08820248","MEAN_ELEMENT_THEORY":"SGP4","SEMIMAJOR_AXIS":"6917.941","ARG_OF_PERICENTER":"39.9197","TIME_SYSTEM":"UTC","APOAPSIS":"541.027","RCS_SIZE":"LARGE","RA_OF_ASC_NODE":"138.8621","BSTAR":"0.00268250000000","EPOCH":"2022-05-01T22:00:01.999584","CLASSIFICATION_TYPE":"U","ELEMENT_SET_NO":"999","PERIOD":"95.439","NORAD_CAT_ID":"51130","FILE":"3424759","REF_FRAME":"TEME","REV_AT_EPOCH":"363","ECCENTRICITY":"0.00017660","CENTER_NAME":"EARTH","OBJECT_TYPE":"PAYLOAD","MEAN_ANOMALY":"162.4160","GP_ID":"202475019","OBJECT_ID":"2022-005AC","MEAN_MOTION_DDOT":"0.0000000000000","OBJECT_NAME":"STARLINK-3395","INCLINATION":"53.2146","PERIAPSIS":"538.584","TLE_LINE2":"2 51130  53.2146 138.8621 0001766  39.9197 162.4160 15.08820248  3630","SITE":"AFETR","COUNTRY_CODE":"US","EPHEMERIS_TYPE":"0","LAUNCH_DATE":"2022-01-19","TLE_LINE1":"1 51130U 22005AC  22121.91668981  .00042640  00000-0  26825-2 0  9996","DECAY_DATE":null,"MEAN_MOTION_DOT":"0.00042640"},{"CLASSIFICATION_TYPE":"U","EPOCH":"2022-05-01T22:00:01.999584","NORAD_CAT_ID":"51131","ELEMENT_SET_NO":"999","PERIOD":"95.440","MEAN_MOTION":"15.08808754","MEAN_ELEMENT_THEORY":"SGP4","SEMIMAJOR_AXIS":"6917.976","APOAPSIS":"541.131","RCS_SIZE":"LARGE","ARG_OF_PERICENTER":"41.5430","TIME_SYSTEM":"UTC","RA_OF_ASC_NODE":"138.8611","BSTAR":"0.00238130000000","EPHEMERIS_TYPE":"0","COUNTRY_CODE":"US","PERIAPSIS":"538.551","TLE_LINE2":"2 51131  53.2176 138.8611 0001865  41.5430 200.8210 15.08808754  3633","SITE":"AFETR","LAUNCH_DATE":"2022-01-19","DECAY_DATE":null,"TLE_LINE1":"1 51131U 22005AD  22121.91668981  .00037782  00000-0  23813-2 0  9992","MEAN_MOTION_DOT":"0.00037782","REF_FRAME":"TEME","FILE":"3424759","CENTER_NAME":"EARTH","OBJECT_TYPE":"PAYLOAD","MEAN_ANOMALY":"200.8210","REV_AT_EPOCH":"363","ECCENTRICITY":"0.00018650","OBJECT_ID":"2022-005AD","GP_ID":"202474769","INCLINATION":"53.2176","MEAN_MOTION_DDOT":"0.0000000000000","OBJECT_NAME":"STARLINK-3388"},{"MEAN_MOTION_DOT":"0.00044046","TLE_LINE1":"1 51132U 22005AE  22121.91668981  .00044046  00000-0  27709-2 0  9992","DECAY_DATE":null,"LAUNCH_DATE":"2022-01-19","EPHEMERIS_TYPE":"0","COUNTRY_CODE":"US","SITE":"AFETR","PERIAPSIS":"538.490","TLE_LINE2":"2 51132  53.2169 138.8603 0001963  52.4154 169.9160 15.08806387  3639","INCLINATION":"53.2169","OBJECT_NAME":"STARLINK-3393","MEAN_MOTION_DDOT":"0.0000000000000","OBJECT_ID":"2022-005AE","GP_ID":"202475519","MEAN_ANOMALY":"169.9160","OBJECT_TYPE":"PAYLOAD","CENTER_NAME":"EARTH","ECCENTRICITY":"0.00019630","REV_AT_EPOCH":"363","REF_FRAME":"TEME","FILE":"3424759","NORAD_CAT_ID":"51132","PERIOD":"95.440","ELEMENT_SET_NO":"999","CLASSIFICATION_TYPE":"U","EPOCH":"2022-05-01T22:00:01.999584","BSTAR":"0.00277090000000","RA_OF_ASC_NODE":"138.8603","RCS_SIZE":"LARGE","APOAPSIS":"541.206","TIME_SYSTEM":"UTC","ARG_OF_PERICENTER":"52.4154","SEMIMAJOR_AXIS":"6917.983","MEAN_ELEMENT_THEORY":"SGP4","MEAN_MOTION":"15.08806387"}];
